NORAD_CAT_ID,OBJECT_NAME,OBJECT_TYPE,EPOCH,MEAN_MOTION,ECCENTRICITY,INCLINATION,RA_OF_ASC_NODE,ARG_OF_PERICENTER,MEAN_ANOMALY,BSTAR,MEAN_MOTION_DOT,MEAN_MOTION_DDOT,TLE_LINE0,TLE_LINE1,TLE_LINE2,SEMIMAJOR_AXIS,PERIOD,APOGEE,PERIGEE,DECAYED
51886.0,STARLINK-3565,PAYLOAD,2022-08-06 14:00:01,15.08812775,0.000254,53.216,124.9084,63.5239,130.5664,0.0025337,0.00040237,0.0,0 STARLINK-3565,1 51886U 22022AL  22218.58334491  .00040237  00000-0  25337-2 0  9996,2 51886  53.2160 124.9084 0002540  63.5239 130.5664 15.08812775  1307,6917.964,95.439,541.586,538.071,0.0
51886.0,STARLINK-3565,PAYLOAD,2022-08-06 21:05:33,15.08833721,0.0002691,53.2182,123.5846,64.03399999999999,296.0929,-3.3667e-07,-2.94e-06,0.0,0 STARLINK-3565,1 51886U 22022AL  22218.87885972 -.00000294  00000-0 -33667-6 0  9993,2 51886  53.2182 123.5846 0002691  64.0340 296.0929 15.08833721 25366,6917.9,95.438,541.626,537.903,0.0
51886.0,STARLINK-3565,PAYLOAD,2022-08-07 14:00:01,15.08807583,0.0002495,53.2166,120.4192,64.6135,164.2659,0.0023293,0.00036946,0.0,0 STARLINK-3565,1 51886U 22022AL  22219.58334491  .00036946  00000-0  23293-2 0  9998,2 51886  53.2166 120.4192 0002495  64.6135 164.2659 15.08807583  1309,6917.979,95.44,541.571,538.118,0.0
51886.0,STARLINK-3565,PAYLOAD,2022-08-07 20:56:20,15.08844096,0.00026,53.218,119.1215,66.8003,293.3263,-4.6271e-06,-3.62e-06,0.0,0 STARLINK-3565,1 51886U 22022AL  22219.87245448 -.00000362  00000-0 -46271-5 0  9992,2 51886  53.2180 119.1215 0002600  66.8003 293.3263 15.08844096 25516,6917.868,95.437,541.5319999999998,537.934,0.0
51886.0,STARLINK-3565,PAYLOAD,2022-08-07 22:00:00,15.088428899999998,0.0002597,53.2169,118.9241,63.6378,176.8134,-0.0010907999999999,-0.00017609,0.0,0 STARLINK-3565,1 51886U 22022AL  22219.91667824 -.00017609  00000-0 -10908-2 0  9990,2 51886  53.2169 118.9241 0002597  63.6378 176.8134 15.08842890 25516,6917.871999999999,95.437,541.533,537.94,0.0
51886.0,STARLINK-3565,PAYLOAD,2022-08-08 14:00:01,15.08839231,0.000247,53.2171,115.9302,66.9765,196.7521,0.0030988,0.00049375,0.0,0 STARLINK-3565,1 51886U 22022AL  22220.58335648  .00049375  00000-0  30988-2 0  9994,2 51886  53.2171 115.9302 0002470  66.9765 196.7521 15.08839231 25617,6917.8830000000025,95.438,541.456,538.039,0.0
51886.0,STARLINK-3565,PAYLOAD,2022-08-08 22:00:00,15.08873318,0.0002488,53.2173,114.4353,64.5674,210.713,-0.0024622,-0.00039299,0.0,0 STARLINK-3565,1 51886U 22022AL  22220.91667824 -.00039299  00000-0 -24622-2 0  9999,2 51886  53.2173 114.4353 0002488  64.5674 210.7130 15.08873318  1308,6917.779,95.435,541.365,537.922,0.0
51886.0,STARLINK-3565,PAYLOAD,2022-08-09 06:00:00,15.08871555,0.0002375,53.217,112.9393,61.2905,225.5998,-0.0040379,-0.00064039,0.0,0 STARLINK-3565,1 51886U 22022AL  22221.25001157 -.00064039  00000-0 -40379-2 0  9995,2 51886  53.2170 112.9393 0002375  61.2905 225.5998 15.08871555 25716,6917.784000000002,95.436,541.2919999999998,538.006,0.0
51886.0,STARLINK-3565,PAYLOAD,2022-08-09 14:00:01,15.08787033,0.0002186,53.2172,111.4414,66.3356,232.1653,0.0024598,0.00039021,0.0,0 STARLINK-3565,1 51886U 22022AL  22221.58334491  .00039021  00000-0  24598-2 0  9997,2 51886  53.2172 111.4414 0002186  66.3356 232.1653 15.08787033  1300,6918.042,95.441,541.42,538.395,0.0
51886.0,STARLINK-3565,PAYLOAD,2022-08-09 22:00:00,15.08818578,0.000226,53.2172,109.9467,63.5088,246.54,-0.00091322,-0.00014785,0.0,0 STARLINK-3565,1 51886U 22022AL  22221.91667824 -.00014785  00000-0 -91322-3 0  9995,2 51886  53.2172 109.9467 0002260  63.5088 246.5400 15.08818578 25814,6917.946,95.439,541.374,538.247,0.0
51886.0,STARLINK-3565,PAYLOAD,2022-08-10 14:00:01,15.08801729,0.000218,53.2168,106.9529,68.7382,264.4531,0.003427,0.00054619,0.0,0 STARLINK-3565,1 51886U 22022AL  22222.58334491  .00054619  00000-0  34270-2 0  9996,2 51886  53.2168 106.9529 0002180  68.7382 264.4531 15.08801729  1302,6917.996999999999,95.44,541.37,538.354,0.0
51886.0,STARLINK-3565,PAYLOAD,2022-08-10 17:07:18,15.08831636,0.0002209,53.217,106.3693,69.5699,250.5001,0.00061317,9.482e-05,0.0,0 STARLINK-3565,1 51886U 22022AL  22222.71341435  .00009482  00000-0  61317-3 0  9998,2 51886  53.2170 106.3693 0002209  69.5699 250.5001 15.08831636 25936,6917.906,95.438,541.299,538.243,0.0
51886.0,STARLINK-3565,PAYLOAD,2022-08-10 22:00:00,15.08839103,0.0002289,53.217,105.457,64.9798,279.7819,-0.00092329,-0.00014953,0.0,0 STARLINK-3565,1 51886U 22022AL  22222.91667824 -.00014953  00000-0 -92329-3 0  9991,2 51886  53.2170 105.4570 0002289  64.9798 279.7819 15.08839103  1309,6917.8830000000025,95.438,541.332,538.165,0.0
51886.0,STARLINK-3565,PAYLOAD,2022-08-11 14:00:01,15.0882119,0.0002218,53.2162,102.4639,70.6258,297.321,0.0032186,0.00051283,0.0,0 STARLINK-3565,1 51886U 22022AL  22223.58334491  .00051283  00000-0  32186-2 0  9995,2 51886  53.2162 102.4639 0002218  70.6258 297.3210 15.08821190  1308,6917.938,95.439,541.337,538.268,0.0
51886.0,STARLINK-3565,PAYLOAD,2022-08-11 22:00:00,15.08867835,0.0002296999999999,53.2162,100.9692,66.3473,313.1922,-0.003472,-0.00055167,0.0,0 STARLINK-3565,1 51886U 22022AL  22223.91667824 -.00055167  00000-0 -34720-2 0  9994,2 51886  53.2162 100.9692 0002297  66.3473 313.1922 15.08867835 26128,6917.795,95.436,541.249,538.071,0.0
51886.0,STARLINK-3565,PAYLOAD,2022-08-12 14:00:01,15.08823302,0.0002161,53.2159,97.9745,70.5412,332.2081,0.0032176,0.0005127,0.0,0 STARLINK-3565,1 51886U 22022AL  22224.58334491  .00051270  00000-0  32176-2 0  9991,2 51886  53.2159  97.9745 0002161  70.5412 332.2081 15.08823302  1300,6917.931,95.439,541.2909999999998,538.3009999999998,0.0
51886.0,STARLINK-3565,PAYLOAD,2022-08-12 22:00:01,15.0886443,0.0002256999999999,53.2159,96.4797,65.8135,348.5898,-0.0025603,-0.00040834,0.0,0 STARLINK-3565,1 51886U 22022AL  22224.91668981 -.00040834  00000-0 -25603-2 0  9995,2 51886  53.2159  96.4797 0002257  65.8135 348.5898 15.08864430  1309,6917.806,95.436,541.232,538.109,0.0
51886.0,STARLINK-3565,PAYLOAD,2022-08-13 06:00:02,15.08856222,0.0002131999999999,53.2158,94.9828,63.5293,2.4783,-0.0035777,-0.00056806,0.0,0 STARLINK-3565,1 51886U 22022AL  22225.25002315 -.00056806  00000-0 -35777-2 0  9995,2 51886  53.2158  94.9828 0002132  63.5293   2.4783 15.08856222 26326,6917.831,95.437,541.1709999999998,538.221,0.0
51886.0,STARLINK-3565,PAYLOAD,2022-08-13 14:00:01,15.08802937,0.0001976,53.216,93.4849,67.7232,9.8369,0.0025607,0.0004065999999999,0.0,0 STARLINK-3565,1 51886U 22022AL  22225.58334491  .00040660  00000-0  25607-2 0  9994,2 51886  53.2160  93.4849 0001976  67.7232   9.8369 15.08802937  1306,6917.994000000002,95.44,541.226,538.492,0.0
51886.0,STARLINK-3565,PAYLOAD,2022-08-13 22:00:00,15.08828115,0.0002117,53.216,91.9902,63.0552,26.074,-0.00060135,-9.843e-05,0.0,0 STARLINK-3565,1 51886U 22022AL  22225.91667824 -.00009843  00000-0 -60135-3 0  9996,2 51886  53.2160  91.9902 0002117  63.0552  26.0740 15.08828115  1301,6917.917,95.438,541.246,538.317,0.0
51886.0,STARLINK-3565,PAYLOAD,2022-08-14 14:00:01,15.08829773,0.0002035,53.2164,88.9953,68.611,43.6928,0.0022645,0.00035926,0.0,0 STARLINK-3565,1 51886U 22022AL  22226.58334491  .00035926  00000-0  22645-2 0  9993,2 51886  53.2164  88.9953 0002035  68.6110  43.6928 15.08829773  1301,6917.9119999999975,95.438,541.184,538.369,0.0
51886.0,STARLINK-3565,PAYLOAD,2022-08-14 22:00:00,15.08858714,0.000213,53.2164,87.5006,63.1095,60.7929,-0.0021173,-0.00033845,0.0,0 STARLINK-3565,1 51886U 22022AL  22226.91667824 -.00033845  00000-0 -21173-2 0  9994,2 51886  53.2164  87.5006 0002130  63.1095  60.7929 15.08858714  1301,6917.823,95.436,541.1619999999998,538.215,0.0
51886.0,STARLINK-3565,PAYLOAD,2022-08-15 06:00:00,15.08850174,0.0001996,53.2164,86.0035,62.4653,73.0387,-0.0022009,-0.00035156,0.0,0 STARLINK-3565,1 51886U 22022AL  22227.25001157 -.00035156  00000-0 -22009-2 0  9999,2 51886  53.2164  86.0035 0001996  62.4653  73.0387 15.08850174 26627,6917.849,95.437,541.095,538.3330000000002,0.0
51886.0,STARLINK-3565,PAYLOAD,2022-08-15 14:00:01,15.08826805,0.0001952,53.2169,84.5059,68.99600000000001,78.0984,0.0017954999999999,0.00028393,0.0,0 STARLINK-3565,1 51886U 22022AL  22227.58334491  .00028393  00000-0  17955-2 0  9992,2 51886  53.2169  84.5059 0001952  68.9960  78.0984 15.08826805  1305,6917.920999999999,95.438,541.136,538.435,0.0
51886.0,STARLINK-3565,PAYLOAD,2022-08-15 22:00:00,15.08846997,0.0002032,53.2168,83.0112,62.7076,95.9777,-0.0019370999999999,-0.00030992,0.0,0 STARLINK-3565,1 51886U 22022AL  22227.91667824 -.00030992  00000-0 -19371-2 0  9992,2 51886  53.2168  83.0112 0002032  62.7076  95.9777 15.08846997  1300,6917.859,95.437,541.13,538.318,0.0
51886.0,STARLINK-3565,PAYLOAD,2022-08-16 14:00:01,15.08822437,0.0001833,53.2171,80.0167,69.6221,112.234,0.0014493,0.00022842,0.0,0 STARLINK-3565,1 51886U 22022AL  22228.58334491  .00022842  00000-0  14493-2 0  9990,2 51886  53.2171  80.0167 0001833  69.6221 112.2340 15.08822437 26823,6917.934,95.439,541.067,538.531,0.0
51886.0,STARLINK-3565,PAYLOAD,2022-08-16 22:00:00,15.08825242,0.0001943,53.217,78.5221,62.7969,130.6446,0.00060977,9.426e-05,0.0,0 STARLINK-3565,1 51886U 22022AL  22228.91667824  .00009426  00000-0  60977-3 0  9998,2 51886  53.2170  78.5221 0001943  62.7969 130.6446 15.08825242  1304,6917.925,95.438,541.135,538.446,0.0
51886.0,STARLINK-3565,PAYLOAD,2022-08-17 06:00:02,15.08850818,0.0001844999999999,53.2168,77.0246,65.1794,139.9016,-0.001939,-0.00031024,0.0,0 STARLINK-3565,1 51886U 22022AL  22229.25002315 -.00031024  00000-0 -19390-2 0  9997,2 51886  53.2168  77.0246 0001845  65.1794 139.9016 15.08850818 26923,6917.847,95.437,540.989,538.436,0.0
51886.0,STARLINK-3565,PAYLOAD,2022-08-17 16:00:00,15.08814495,0.0001940999999999,53.2171,75.1541,73.6869,235.7864,-0.00058658,-9.605e-05,0.0,0 STARLINK-3565,1 51886U 22022AL  22229.66667824 -.00009605  00000-0 -58658-3 0  9995,2 51886  53.2171  75.1541 0001941  73.6869 235.7864 15.08814495  1300,6917.958000000001,95.439,541.1659999999998,538.481,0.0
